{"type": "FeatureCollection", "features": [ {"type": "Feature", "properties": {"norad_id": 38779, "name": "GSAT-10 (GAGAN/PRN 128)", "group": "gnss", "lat": -0.03276374571776399, "lon": 119.99083885036192, "alt_km": 35775.42498350067, "timestamp": "2025-12-15T20:48:54.127186+00:00", "meta": {"OBJECT_NAME": "GSAT-10 (GAGAN/PRN 128)", "OBJECT_ID": "2012-051B", "EPOCH": "2025-12-14T22:18:38.668608", "MEAN_MOTION": 1.00272978, "ECCENTRICITY": 0.00024851, "INCLINATION": 0.0844, "RA_OF_ASC_NODE": 266.1106, "ARG_OF_PERICENTER": 221.9664, "MEAN_ANOMALY": 13.4366, "EPHEMERIS_TYPE": 0, "CLASSIFICATION_TYPE": "U", "NORAD_CAT_ID": 38779, "ELEMENT_SET_NO": 999, "REV_AT_EPOCH": 4825, "BSTAR": 0, "MEAN_MOTION_DOT": -1.45e-06, "MEAN_MOTION_DDOT": 0}, "tle": {"line1": "1 38779U 12051B   25348.92961422 -.00000145  00000+0  00000+0 0  9999", "line2": "2 38779   0.0844 266.1106 0002485 221.9664  13.4366  1.00272978 48251"}}, "geometry": {"type": "Point", "coordinates": [119.99083885036192, -0.03276374571776399]}}, {"type": "Feature", "properties": {"norad_id": 38833, "name": "GPS BIIF-3  (PRN 24)", "group": "gnss", "lat": 14.545882828976264, "lon": 162.15648608255896, "alt_km": 19850.941820848457, "timestamp": "2025-12-15T20:48:54.127198+00:00", "meta": {"OBJECT_NAME": "GPS BIIF-3  (PRN 24)", "OBJECT_ID": "2012-053A", "EPOCH": "2025-12-13T20:21:34.724448", "MEAN_MOTION": 2.00565042, "ECCENTRICITY": 0.01758819, "INCLINATION": 53.5579, "RA_OF_ASC_NODE": 151.1931, "ARG_OF_PERICENTER": 64.0051, "MEAN_ANOMALY": 297.7998, "EPHEMERIS_TYPE": 0, "CLASSIFICATION_TYPE": "U", "NORAD_CAT_ID": 38833, "ELEMENT_SET_NO": 999, "REV_AT_EPOCH": 9572, "BSTAR": 0, "MEAN_MOTION_DOT": 9.2e-07, "MEAN_MOTION_DDOT": 0}, "tle": {"line1": "1 38833U 12053A   25347.84831857  .00000092  00000+0  00000+0 0  9990", "line2": "2 38833  53.5579 151.1931 0175881  64.0051 297.7998  2.00565042 95726"}}, "geometry": {"type": "Point", "coordinates": [162.15648608255896, 14.545882828976264]}}, {"type": "Feature", "properties": {"norad_id": 38857, "name": "GSAT0103 (GALILEO-FM3)", "group": "gnss", "lat": -3.3640437068620876, "lon": 104.26956073138294, "alt_km": 23222.563335379375, "timestamp": "2025-12-15T20:48:54.127210+00:00", "meta": {"OBJECT_NAME": "GSAT0103 (GALILEO-FM3)", "OBJECT_ID": "2012-055A", "EPOCH": "2025-12-13T12:39:44.093088", "MEAN_MOTION": 1.70473367, "ECCENTRICITY": 0.00026827, "INCLINATION": 55.6929, "RA_OF_ASC_NODE": 106.6448, "ARG_OF_PERICENTER": 268.8486, "MEAN_ANOMALY": 91.0883, "EPHEMERIS_TYPE": 0, "CLASSIFICATION_TYPE": "U", "NORAD_CAT_ID": 38857, "ELEMENT_SET_NO": 999, "REV_AT_EPOCH": 8184, "BSTAR": 0, "MEAN_MOTION_DOT": 1e-08, "MEAN_MOTION_DDOT": 0}, "tle": {"line1": "1 38857U 12055A   25347.52759367  .00000001  00000+0  00000+0 0  9998", "line2": "2 38857  55.6929 106.6448 0002682 268.8486  91.0883  1.70473367 81846"}}, "geometry": {"type": "Point", "coordinates": [104.26956073138294, -3.3640437068620876]}}, {"type": "Feature", "properties": {"norad_id": 38953, "name": "BEIDOU-2 G6 (C02)", "group": "gnss", "lat": 2.8413247354387825, "lon": 120.98496926097012, "alt_km": 35800.429262427955, "timestamp": "2025-12-15T20:48:54.127226+00:00", "meta": {"OBJECT_NAME": "BEIDOU-2 G6 (C02)", "OBJECT_ID": "2012-059A", "EPOCH": "2025-12-14T20:39:57.055392", "MEAN_MOTION": 1.00269597, "ECCENTRICITY": 0.00079583, "INCLINATION": 3.9549, "RA_OF_ASC_NODE": 75.4859, "ARG_OF_PERICENTER": 290.4887, "MEAN_ANOMALY": 111.7816, "EPHEMERIS_TYPE": 0, "CLASSIFICATION_TYPE": "U", "NORAD_CAT_ID": 38953, "ELEMENT_SET_NO": 999, "REV_AT_EPOCH": 4806, "BSTAR": 0, "MEAN_MOTION_DOT": -1.57e-06, "MEAN_MOTION_DDOT": 0}, "tle": {"line1": "1 38953U 12059A   25348.86107703 -.00000157  00000+0  00000+0 0  9991", "line2": "2 38953   3.9549  75.4859 0007958 290.4887 111.7816  1.00269597 48067"}}, "geometry": {"type": "Point", "coordinates": [120.98496926097012, 2.8413247354387825]}}, {"type": "Feature", "properties": {"norad_id": 38977, "name": "LUCH 5B (SDCM/PRN 125)", "group": "gnss", "lat": -5.164007590677105, "lon": 21.09978403230813, "alt_km": 35807.2920388271, "timestamp": "2025-12-15T20:48:54.127239+00:00", "meta": {"OBJECT_NAME": "LUCH 5B (SDCM/PRN 125)", "OBJECT_ID": "2012-061A", "EPOCH": "2025-12-14T21:54:12.441600", "MEAN_MOTION": 1.0027242, "ECCENTRICITY": 0.00069033, "INCLINATION": 10.0861, "RA_OF_ASC_NODE": 51.6861, "ARG_OF_PERICENTER": 193.8782, "MEAN_ANOMALY": 150.4751, "EPHEMERIS_TYPE": 0, "CLASSIFICATION_TYPE": "U", "NORAD_CAT_ID": 38977, "ELEMENT_SET_NO": 999, "REV_AT_EPOCH": 4775, "BSTAR": 0, "MEAN_MOTION_DOT": -1.25e-06, "MEAN_MOTION_DDOT": 0}, "tle": {"line1": "1 38977U 12061A   25348.91264400 -.00000125  00000+0  00000+0 0  9999", "line2": "2 38977  10.0861  51.6861 0006903 193.8782 150.4751  1.00272420 47759"}}, "geometry": {"type": "Point", "coordinates": [21.09978403230813, -5.164007590677105]}}, {"type": "Feature", "properties": {"norad_id": 39155, "name": "COSMOS 2485 (747)", "group": "gnss", "lat": -21.969838644499728, "lon": 69.0922542342741, "alt_km": 19150.34706021975, "timestamp": "2025-12-15T20:48:54.127251+00:00", "meta": {"OBJECT_NAME": "COSMOS 2485 (747)", "OBJECT_ID": "2013-019A", "EPOCH": "2025-12-13T13:15:58.678272", "MEAN_MOTION": 2.13102947, "ECCENTRICITY": 0.00246467, "INCLINATION": 65.3142, "RA_OF_ASC_NODE": 79.8396, "ARG_OF_PERICENTER": 229.7128, "MEAN_ANOMALY": 130.0848, "EPHEMERIS_TYPE": 0, "CLASSIFICATION_TYPE": "U", "NORAD_CAT_ID": 39155, "ELEMENT_SET_NO": 999, "REV_AT_EPOCH": 9832, "BSTAR": 0, "MEAN_MOTION_DOT": -4.8e-07, "MEAN_MOTION_DDOT": 0}, "tle": {"line1": "1 39155U 13019A   25347.55276248 -.00000048  00000+0  00000+0 0  9998", "line2": "2 39155  65.3142  79.8396 0024646 229.7128 130.0848  2.13102947 98326"}}, "geometry": {"type": "Point", "coordinates": [69.0922542342741, -21.969838644499728]}}, {"type": "Feature", "properties": {"norad_id": 39166, "name": "GPS BIIF-4  (PRN 27)", "group": "gnss", "lat": 45.681977786803756, "lon": 49.88086046906727, "alt_km": 20050.033215696192, "timestamp": "2025-12-15T20:48:54.127262+00:00", "meta": {"OBJECT_NAME": "GPS BIIF-4  (PRN 27)", "OBJECT_ID": "2013-023A", "EPOCH": "2025-12-14T05:03:38.216736", "MEAN_MOTION": 2.0056471, "ECCENTRICITY": 0.01375063, "INCLINATION": 54.6512, "RA_OF_ASC_NODE": 276.5088, "ARG_OF_PERICENTER": 48.2653, "MEAN_ANOMALY": 312.9132, "EPHEMERIS_TYPE": 0, "CLASSIFICATION_TYPE": "U", "NORAD_CAT_ID": 39166, "ELEMENT_SET_NO": 999, "REV_AT_EPOCH": 9217, "BSTAR": 0, "MEAN_MOTION_DOT": -7.4e-07, "MEAN_MOTION_DDOT": 0}, "tle": {"line1": "1 39166U 13023A   25348.21085899 -.00000074  00000+0  00000+0 0  9998", "line2": "2 39166  54.6512 276.5088 0137506  48.2653 312.9132  2.00564710 92171"}}, "geometry": {"type": "Point", "coordinates": [49.88086046906727, 45.681977786803756]}}, {"type": "Feature", "properties": {"norad_id": 39199, "name": "IRNSS-1A", "group": "gnss", "lat": 14.64399592199893, "lon": 88.12768397450033, "alt_km": 35867.36845666554, "timestamp": "2025-12-15T20:48:54.127276+00:00", "meta": {"OBJECT_NAME": "IRNSS-1A", "OBJECT_ID": "2013-034A", "EPOCH": "2025-12-02T19:49:26.431104", "MEAN_MOTION": 1.00279053, "ECCENTRICITY": 0.00216608, "INCLINATION": 35.2852, "RA_OF_ASC_NODE": 66.6964, "ARG_OF_PERICENTER": 185.4059, "MEAN_ANOMALY": 172.3398, "EPHEMERIS_TYPE": 0, "CLASSIFICATION_TYPE": "U", "NORAD_CAT_ID": 39199, "ELEMENT_SET_NO": 999, "REV_AT_EPOCH": 4539, "BSTAR": 0, "MEAN_MOTION_DOT": 6.5e-07, "MEAN_MOTION_DDOT": 0}, "tle": {"line1": "1 39199U 13034A   25336.82600036  .00000065  00000+0  00000+0 0  9995", "line2": "2 39199  35.2852  66.6964 0021660 185.4059 172.3398  1.00279053 45393"}}, "geometry": {"type": "Point", "coordinates": [88.12768397450033, 14.64399592199893]}}, {"type": "Feature", "properties": {"norad_id": 39533, "name": "GPS BIIF-5  (PRN 30)", "group": "gnss", "lat": 44.756094526493854, "lon": -70.17613897553287, "alt_km": 20238.005952202748, "timestamp": "2025-12-15T20:48:54.127289+00:00", "meta": {"OBJECT_NAME": "GPS BIIF-5  (PRN 30)", "OBJECT_ID": "2014-008A", "EPOCH": "2025-12-14T16:52:49.926432", "MEAN_MOTION": 2.00574571, "ECCENTRICITY": 0.00792742, "INCLINATION": 53.6315, "RA_OF_ASC_NODE": 156.8445, "ARG_OF_PERICENTER": 226.5365, "MEAN_ANOMALY": 132.8141, "EPHEMERIS_TYPE": 0, "CLASSIFICATION_TYPE": "U", "NORAD_CAT_ID": 39533, "ELEMENT_SET_NO": 999, "REV_AT_EPOCH": 8598, "BSTAR": 0, "MEAN_MOTION_DOT": 9.6e-07, "MEAN_MOTION_DDOT": 0}, "tle": {"line1": "1 39533U 14008A   25348.70335563  .00000096  00000+0  00000+0 0  9993", "line2": "2 39533  53.6315 156.8445 0079274 226.5365 132.8141  2.00574571 85980"}}, "geometry": {"type": "Point", "coordinates": [-70.17613897553287, 44.756094526493854]}}, {"type": "Feature", "properties": {"norad_id": 39617, "name": "ASTRA 5B (EGNOS/PRN 123)", "group": "gnss", "lat": 0.04087042665025985, "lon": 60.504019444633684, "alt_km": 35801.47412355009, "timestamp": "2025-12-15T20:48:54.127301+00:00", "meta": {"OBJECT_NAME": "ASTRA 5B (EGNOS/PRN 123)", "OBJECT_ID": "2014-011B", "EPOCH": "2025-12-14T22:05:26.365920", "MEAN_MOTION": 1.00273697, "ECCENTRICITY": 0.00042583, "INCLINATION": 0.0651, "RA_OF_ASC_NODE": 42.2784, "ARG_OF_PERICENTER": 225.4092, "MEAN_ANOMALY": 170.999, "EPHEMERIS_TYPE": 0, "CLASSIFICATION_TYPE": "U", "NORAD_CAT_ID": 39617, "ELEMENT_SET_NO": 999, "REV_AT_EPOCH": 4282, "BSTAR": 0, "MEAN_MOTION_DOT": 1.57e-06, "MEAN_MOTION_DDOT": 0}, "tle": {"line1": "1 39617U 14011B   25348.92044405  .00000157  00000+0  00000+0 0  9994", "line2": "2 39617   0.0651  42.2784 0004258 225.4092 170.9990  1.00273697 42826"}}, "geometry": {"type": "Point", "coordinates": [60.504019444633684, 0.04087042665025985]}}]}